{
  "type": "FeatureCollection",
  "features": [
    {
      "type": "Feature",
      "properties": {
        "norad_id": 29869,
        "name": "FENGYUN 1C DEB",
        "group": "fengyun-1c-debris",
        "lat": -27.548434521228007,
        "lon": -62.97035189020722,
        "alt_km": 712.593960751582,
        "timestamp": "2025-12-27T14:26:30.793586+00:00",
        "meta_object_name": "FENGYUN 1C DEB",
        "meta_object_id": "1999-025FP",
        "meta_epoch": "2025-12-27T06:58:21.825696",
        "meta_mean_motion": 14.36922307,
        "meta_eccentricity": 0.00867965,
        "meta_inclination": 98.8748,
        "meta_ra_of_asc_node": 292.0338,
        "meta_arg_of_pericenter": 328.2503,
        "meta_mean_anomaly": 194.8913,
        "meta_ephemeris_type": 0,
        "meta_classification_type": "U",
        "meta_norad_cat_id": 29869,
        "meta_element_set_no": 999,
        "meta_rev_at_epoch": 99029,
        "meta_bstar": 0.00048126921,
        "meta_mean_motion_dot": 1.439e-05,
        "meta_mean_motion_ddot": 0,
        "tle_line1": "1 29869U 99025FP  25361.29053039  .00001439  00000+0  48127-3 0  9998",
        "tle_line2": "2 29869  98.8748 292.0338 0086796 328.2503 194.8913 14.36922307990297"
      },
      "geometry": {
        "type": "Point",
        "coordinates": [
          -62.97035189020722,
          -27.548434521228007
        ]
      }
    },
    {
      "type": "Feature",
      "properties": {
        "norad_id": 29870,
        "name": "FENGYUN 1C DEB",
        "group": "fengyun-1c-debris",
        "lat": -60.160941879371975,
        "lon": -12.874365014478318,
        "alt_km": 877.047583496802,
        "timestamp": "2025-12-27T14:26:30.793596+00:00",
        "meta_object_name": "FENGYUN 1C DEB",
        "meta_object_id": "1999-025FQ",
        "meta_epoch": "2025-12-26T22:01:00.279840",
        "meta_mean_motion": 14.28984655,
        "meta_eccentricity": 0.012069,
        "meta_inclination": 98.462,
        "meta_ra_of_asc_node": 331.4192,
        "meta_arg_of_pericenter": 150.6991,
        "meta_mean_anomaly": 228.7103,
        "meta_ephemeris_type": 0,
        "meta_classification_type": "U",
        "meta_norad_cat_id": 29870,
        "meta_element_set_no": 999,
        "meta_rev_at_epoch": 98796,
        "meta_bstar": 6.2971e-05,
        "meta_mean_motion_dot": 1.3e-06,
        "meta_mean_motion_ddot": 0,
        "tle_line1": "1 29870U 99025FQ  25360.91736435  .00000130  00000+0  62971-4 0  9997",
        "tle_line2": "2 29870  98.4620 331.4192 0120690 150.6991 228.7103 14.28984655987963"
      },
      "geometry": {
        "type": "Point",
        "coordinates": [
          -12.874365014478318,
          -60.160941879371975
        ]
      }
    },
    {
      "type": "Feature",
      "properties": {
        "norad_id": 29871,
        "name": "FENGYUN 1C DEB",
        "group": "fengyun-1c-debris",
        "lat": -77.31745707665166,
        "lon": 90.89464917040884,
        "alt_km": 797.0724617897022,
        "timestamp": "2025-12-27T14:26:30.793607+00:00",
        "meta_object_name": "FENGYUN 1C DEB",
        "meta_object_id": "1999-025FR",
        "meta_epoch": "2025-12-27T03:20:16.380672",
        "meta_mean_motion": 14.42727758,
        "meta_eccentricity": 0.00590727,
        "meta_inclination": 98.9747,
        "meta_ra_of_asc_node": 315.0159,
        "meta_arg_of_pericenter": 65.5064,
        "meta_mean_anomaly": 314.0387,
        "meta_ephemeris_type": 0,
        "meta_classification_type": "U",
        "meta_norad_cat_id": 29871,
        "meta_element_set_no": 999,
        "meta_rev_at_epoch": 98909,
        "meta_bstar": 0.0012323168,
        "meta_mean_motion_dot": 4.143e-05,
        "meta_mean_motion_ddot": 0,
        "tle_line1": "1 29871U 99025FR  25361.13907848  .00004143  00000+0  12323-2 0  9993",
        "tle_line2": "2 29871  98.9747 315.0159 0059072  65.5064 314.0387 14.42727758989094"
      },
      "geometry": {
        "type": "Point",
        "coordinates": [
          90.89464917040884,
          -77.31745707665166
        ]
      }
    },
    {
      "type": "Feature",
      "properties": {
        "norad_id": 29872,
        "name": "FENGYUN 1C DEB",
        "group": "fengyun-1c-debris",
        "lat": -56.87451699075708,
        "lon": -175.8158689610396,
        "alt_km": 623.9358848739748,
        "timestamp": "2025-12-27T14:26:30.793617+00:00",
        "meta_object_name": "FENGYUN 1C DEB",
        "meta_object_id": "1999-025FS",
        "meta_epoch": "2025-12-26T23:58:16.943808",
        "meta_mean_motion": 14.39020568,
        "meta_eccentricity": 0.0234945,
        "meta_inclination": 98.345,
        "meta_ra_of_asc_node": 16.5965,
        "meta_arg_of_pericenter": 270.5581,
        "meta_mean_anomaly": 86.8692,
        "meta_ephemeris_type": 0,
        "meta_classification_type": "U",
        "meta_norad_cat_id": 29872,
        "meta_element_set_no": 999,
        "meta_rev_at_epoch": 98797,
        "meta_bstar": 0.00061945,
        "meta_mean_motion_dot": 2.588e-05,
        "meta_mean_motion_ddot": 0,
        "tle_line1": "1 29872U 99025FS  25360.99880722  .00002588  00000+0  61945-3 0  9994",
        "tle_line2": "2 29872  98.3450  16.5965 0234945 270.5581  86.8692 14.39020568987973"
      },
      "geometry": {
        "type": "Point",
        "coordinates": [
          -175.8158689610396,
          -56.87451699075708
        ]
      }
    },
    {
      "type": "Feature",
      "properties": {
        "norad_id": 29873,
        "name": "FENGYUN 1C DEB",
        "group": "fengyun-1c-debris",
        "lat": -61.01671347227059,
        "lon": -120.41403341724319,
        "alt_km": 958.2402588833138,
        "timestamp": "2025-12-27T14:26:30.793627+00:00",
        "meta_object_name": "FENGYUN 1C DEB",
        "meta_object_id": "1999-025FT",
        "meta_epoch": "2025-12-27T03:19:28.196256",
        "meta_mean_motion": 13.98156442,
        "meta_eccentricity": 0.00924856,
        "meta_inclination": 99.4416,
        "meta_ra_of_asc_node": 221.6281,
        "meta_arg_of_pericenter": 159.3051,
        "meta_mean_anomaly": 327.2698,
        "meta_ephemeris_type": 0,
        "meta_classification_type": "U",
        "meta_norad_cat_id": 29873,
        "meta_element_set_no": 999,
        "meta_rev_at_epoch": 96516,
        "meta_bstar": 0.00049340758,
        "meta_mean_motion_dot": 6.82e-06,
        "meta_mean_motion_ddot": 0,
        "tle_line1": "1 29873U 99025FT  25361.13852079  .00000682  00000+0  49341-3 0  9995",
        "tle_line2": "2 29873  99.4416 221.6281 0092485 159.3051 327.2698 13.98156442965165"
      },
      "geometry": {
        "type": "Point",
        "coordinates": [
          -120.41403341724319,
          -61.01671347227059
        ]
      }
    },
    {
      "type": "Feature",
      "properties": {
        "norad_id": 29874,
        "name": "FENGYUN 1C DEB",
        "group": "fengyun-1c-debris",
        "lat": -0.6945563101969476,
        "lon": -101.98299672890334,
        "alt_km": 751.3125329327768,
        "timestamp": "2025-12-27T14:26:30.793637+00:00",
        "meta_object_name": "FENGYUN 1C DEB",
        "meta_object_id": "1999-025FU",
        "meta_epoch": "2025-12-26T23:22:43.650048",
        "meta_mean_motion": 14.29036576,
        "meta_eccentricity": 0.0103784,
        "meta_inclination": 98.3768,
        "meta_ra_of_asc_node": 257.3115,
        "meta_arg_of_pericenter": 309.5784,
        "meta_mean_anomaly": 61.8911,
        "meta_ephemeris_type": 0,
        "meta_classification_type": "U",
        "meta_norad_cat_id": 29874,
        "meta_element_set_no": 999,
        "meta_rev_at_epoch": 97051,
        "meta_bstar": 0.0037825,
        "meta_mean_motion_dot": 0.00010118,
        "meta_mean_motion_ddot": 0,
        "tle_line1": "1 29874U 99025FU  25360.97411632  .00010118  00000+0  37825-2 0  9991",
        "tle_line2": "2 29874  98.3768 257.3115 0103784 309.5784  61.8911 14.29036576970517"
      },
      "geometry": {
        "type": "Point",
        "coordinates": [
          -101.98299672890334,
          -0.6945563101969476
        ]
      }
    },
    {
      "type": "Feature",
      "properties": {
        "norad_id": 29875,
        "name": "FENGYUN 1C DEB",
        "group": "fengyun-1c-debris",
        "lat": -12.703080427487643,
        "lon": 54.30442182160042,
        "alt_km": 763.3467708556927,
        "timestamp": "2025-12-27T14:26:30.793647+00:00",
        "meta_object_name": "FENGYUN 1C DEB",
        "meta_object_id": "1999-025FV",
        "meta_epoch": "2025-12-27T02:57:22.251744",
        "meta_mean_motion": 14.2488064,
        "meta_eccentricity": 0.0082524,
        "meta_inclination": 98.403,
        "meta_ra_of_asc_node": 51.9368,
        "meta_arg_of_pericenter": 21.5329,
        "meta_mean_anomaly": 32.7902,
        "meta_ephemeris_type": 0,
        "meta_classification_type": "U",
        "meta_norad_cat_id": 29875,
        "meta_element_set_no": 999,
        "meta_rev_at_epoch": 98527,
        "meta_bstar": 2.9460732e-05,
        "meta_mean_motion_dot": 3e-07,
        "meta_mean_motion_ddot": 0,
        "tle_line1": "1 29875U 99025FV  25361.12317421  .00000030  00000+0  29461-4 0  9992",
        "tle_line2": "2 29875  98.4030  51.9368 0082524  21.5329  32.7902 14.24880640985273"
      },
      "geometry": {
        "type": "Point",
        "coordinates": [
          54.30442182160042,
          -12.703080427487643
        ]
      }
    }
  ]
}